{"type": "FeatureCollection", "features": [ {"type": "Feature", "properties": {"norad_id": 41836, "name": "HIMAWARI-9", "group": "weather", "lat": -0.02077782796249386, "lon": -53.10643965587172, "alt_km": 35781.641640914684, "timestamp": "2025-12-27T04:40:45.142622+00:00", "meta": {"OBJECT_NAME": "HIMAWARI-9", "OBJECT_ID": "2016-064A", "EPOCH": "2025-12-26T00:44:38.656608", "MEAN_MOTION": 1.00271993, "ECCENTRICITY": 0.00010793, "INCLINATION": 0.0124, "RA_OF_ASC_NODE": 80.1849, "ARG_OF_PERICENTER": 234.8379, "MEAN_ANOMALY": 291.7052, "EPHEMERIS_TYPE": 0, "CLASSIFICATION_TYPE": "U", "NORAD_CAT_ID": 41836, "ELEMENT_SET_NO": 999, "REV_AT_EPOCH": 3347, "BSTAR": 0, "MEAN_MOTION_DOT": -2.53e-06, "MEAN_MOTION_DDOT": 0}, "tle": {"line1": "1 41836U 16064A   25360.03100297 -.00000253  00000+0  00000+0 0  9996", "line2": "2 41836   0.0124  80.1849 0001079 234.8379 291.7052  1.00271993 33479"}}, "geometry": {"type": "Point", "coordinates": [-53.10643965587172, -0.02077782796249386]}}, {"type": "Feature", "properties": {"norad_id": 41866, "name": "GOES 16", "group": "weather", "lat": -0.03509173012039815, "lon": 61.46569140031632, "alt_km": 35798.52111749121, "timestamp": "2025-12-27T04:40:45.142635+00:00", "meta": {"OBJECT_NAME": "GOES 16", "OBJECT_ID": "2016-071A", "EPOCH": "2025-12-26T15:57:36.330912", "MEAN_MOTION": 1.00271631, "ECCENTRICITY": 0.00032738, "INCLINATION": 0.0797, "RA_OF_ASC_NODE": 100.8609, "ARG_OF_PERICENTER": 167.1325, "MEAN_ANOMALY": 322.1538, "EPHEMERIS_TYPE": 0, "CLASSIFICATION_TYPE": "U", "NORAD_CAT_ID": 41866, "ELEMENT_SET_NO": 999, "REV_AT_EPOCH": 3337, "BSTAR": 0, "MEAN_MOTION_DOT": -6.9e-07, "MEAN_MOTION_DDOT": 0}, "tle": {"line1": "1 41866U 16071A   25360.66500383 -.00000069  00000+0  00000+0 0  9991", "line2": "2 41866   0.0797 100.8609 0003273 167.1325 322.1538  1.00271631 33375"}}, "geometry": {"type": "Point", "coordinates": [61.46569140031632, -0.03509173012039815]}}, {"type": "Feature", "properties": {"norad_id": 41882, "name": "FENGYUN 4A", "group": "weather", "lat": -0.8866722054786684, "lon": -70.31166208981507, "alt_km": 35780.59120379054, "timestamp": "2025-12-27T04:40:45.142647+00:00", "meta": {"OBJECT_NAME": "FENGYUN 4A", "OBJECT_ID": "2016-077A", "EPOCH": "2025-12-26T09:22:21.494784", "MEAN_MOTION": 1.00262391, "ECCENTRICITY": 0.0004534, "INCLINATION": 1.8816, "RA_OF_ASC_NODE": 82.2577, "ARG_OF_PERICENTER": 143.1389, "MEAN_ANOMALY": 133.8992, "EPHEMERIS_TYPE": 0, "CLASSIFICATION_TYPE": "U", "NORAD_CAT_ID": 41882, "ELEMENT_SET_NO": 999, "REV_AT_EPOCH": 3319, "BSTAR": 0, "MEAN_MOTION_DOT": -3.36e-06, "MEAN_MOTION_DDOT": 0}, "tle": {"line1": "1 41882U 16077A   25360.39052656 -.00000336  00000+0  00000+0 0  9997", "line2": "2 41882   1.8816  82.2577 0004534 143.1389 133.8992  1.00262391 33190"}}, "geometry": {"type": "Point", "coordinates": [-70.31166208981507, -0.8866722054786684]}}, {"type": "Feature", "properties": {"norad_id": 41884, "name": "CYGFM05", "group": "weather", "lat": 25.691175787075956, "lon": -3.8140004379921733, "alt_km": 418.52496835436796, "timestamp": "2025-12-27T04:40:45.142658+00:00", "meta": {"OBJECT_NAME": "CYGFM05", "OBJECT_ID": "2016-078A", "EPOCH": "2025-12-26T23:49:30.572544", "MEAN_MOTION": 15.48184285, "ECCENTRICITY": 0.00102851, "INCLINATION": 34.96, "RA_OF_ASC_NODE": 313.9917, "ARG_OF_PERICENTER": 305.1243, "MEAN_ANOMALY": 54.8515, "EPHEMERIS_TYPE": 0, "CLASSIFICATION_TYPE": "U", "NORAD_CAT_ID": 41884, "ELEMENT_SET_NO": 999, "REV_AT_EPOCH": 50197, "BSTAR": 0.00043724724, "MEAN_MOTION_DOT": 0.00023781, "MEAN_MOTION_DDOT": 0}, "tle": {"line1": "1 41884U 16078A   25360.99271496  .00023781  00000+0  43725-3 0  9994", "line2": "2 41884  34.9600 313.9917 0010285 305.1243  54.8515 15.48184285501972"}}, "geometry": {"type": "Point", "coordinates": [-3.8140004379921733, 25.691175787075956]}}, {"type": "Feature", "properties": {"norad_id": 41885, "name": "CYGFM04", "group": "weather", "lat": 33.16712100843272, "lon": -3.5325953726225574, "alt_km": 408.7406112505332, "timestamp": "2025-12-27T04:40:45.142669+00:00", "meta": {"OBJECT_NAME": "CYGFM04", "OBJECT_ID": "2016-078B", "EPOCH": "2025-12-26T22:11:15.551520", "MEAN_MOTION": 15.50983578, "ECCENTRICITY": 0.00088157, "INCLINATION": 34.9345, "RA_OF_ASC_NODE": 288.7999, "ARG_OF_PERICENTER": 329.7289, "MEAN_ANOMALY": 30.2923, "EPHEMERIS_TYPE": 0, "CLASSIFICATION_TYPE": "U", "NORAD_CAT_ID": 41885, "ELEMENT_SET_NO": 999, "REV_AT_EPOCH": 50214, "BSTAR": 0.00044456338, "MEAN_MOTION_DOT": 0.000267, "MEAN_MOTION_DDOT": 0}, "tle": {"line1": "1 41885U 16078B   25360.92448555  .00026700  00000+0  44456-3 0  9996", "line2": "2 41885  34.9345 288.7999 0008815 329.7289  30.2923 15.50983578502142"}}, "geometry": {"type": "Point", "coordinates": [-3.5325953726225574, 33.16712100843272]}}, {"type": "Feature", "properties": {"norad_id": 41886, "name": "CYGFM02", "group": "weather", "lat": 11.790357008857594, "lon": 87.76483712839304, "alt_km": 413.90019238603327, "timestamp": "2025-12-27T04:40:45.142680+00:00", "meta": {"OBJECT_NAME": "CYGFM02", "OBJECT_ID": "2016-078C", "EPOCH": "2025-12-26T21:49:26.477472", "MEAN_MOTION": 15.52406909, "ECCENTRICITY": 0.00103908, "INCLINATION": 34.9434, "RA_OF_ASC_NODE": 287.0388, "ARG_OF_PERICENTER": 331.5166, "MEAN_ANOMALY": 28.4988, "EPHEMERIS_TYPE": 0, "CLASSIFICATION_TYPE": "U", "NORAD_CAT_ID": 41886, "ELEMENT_SET_NO": 999, "REV_AT_EPOCH": 50227, "BSTAR": 0.00044587417, "MEAN_MOTION_DOT": 0.0002821, "MEAN_MOTION_DDOT": 0}, "tle": {"line1": "1 41886U 16078C   25360.90933423  .00028210  00000+0  44587-3 0  9991", "line2": "2 41886  34.9434 287.0388 0010390 331.5166  28.4988 15.52406909502276"}}, "geometry": {"type": "Point", "coordinates": [87.76483712839304, 11.790357008857594]}}, {"type": "Feature", "properties": {"norad_id": 41887, "name": "CYGFM01", "group": "weather", "lat": 28.28869602144023, "lon": 84.49186469394898, "alt_km": 421.7408682776668, "timestamp": "2025-12-27T04:40:45.142690+00:00", "meta": {"OBJECT_NAME": "CYGFM01", "OBJECT_ID": "2016-078D", "EPOCH": "2025-12-26T21:57:28.245600", "MEAN_MOTION": 15.48776981, "ECCENTRICITY": 0.00101257, "INCLINATION": 34.9433, "RA_OF_ASC_NODE": 316.7493, "ARG_OF_PERICENTER": 297.0946, "MEAN_ANOMALY": 62.8743, "EPHEMERIS_TYPE": 0, "CLASSIFICATION_TYPE": "U", "NORAD_CAT_ID": 41887, "ELEMENT_SET_NO": 999, "REV_AT_EPOCH": 50190, "BSTAR": 0.00044565484, "MEAN_MOTION_DOT": 0.00024753, "MEAN_MOTION_DDOT": 0}, "tle": {"line1": "1 41887U 16078D   25360.91491025  .00024753  00000+0  44565-3 0  9994", "line2": "2 41887  34.9433 316.7493 0010125 297.0946  62.8743 15.48776981501906"}}, "geometry": {"type": "Point", "coordinates": [84.49186469394898, 28.28869602144023]}}, {"type": "Feature", "properties": {"norad_id": 41888, "name": "CYGFM08", "group": "weather", "lat": -28.469695844189687, "lon": 168.68348746525118, "alt_km": 417.9726450944181, "timestamp": "2025-12-27T04:40:45.142701+00:00", "meta": {"OBJECT_NAME": "CYGFM08", "OBJECT_ID": "2016-078E", "EPOCH": "2025-12-26T23:01:35.997024", "MEAN_MOTION": 15.50023245, "ECCENTRICITY": 0.00111832, "INCLINATION": 34.9458, "RA_OF_ASC_NODE": 299.2811, "ARG_OF_PERICENTER": 321.4092, "MEAN_ANOMALY": 38.583, "EPHEMERIS_TYPE": 0, "CLASSIFICATION_TYPE": "U", "NORAD_CAT_ID": 41888, "ELEMENT_SET_NO": 999, "REV_AT_EPOCH": 50214, "BSTAR": 0.00044623968, "MEAN_MOTION_DOT": 0.00025919, "MEAN_MOTION_DDOT": 0}, "tle": {"line1": "1 41888U 16078E   25360.95944441  .00025919  00000+0  44624-3 0  9995", "line2": "2 41888  34.9458 299.2811 0011183 321.4092  38.5830 15.50023245502147"}}, "geometry": {"type": "Point", "coordinates": [168.68348746525118, -28.469695844189687]}}, {"type": "Feature", "properties": {"norad_id": 41890, "name": "CYGFM07", "group": "weather", "lat": -33.55481262441587, "lon": 178.39910596055086, "alt_km": 416.23351300631566, "timestamp": "2025-12-27T04:40:45.142712+00:00", "meta": {"OBJECT_NAME": "CYGFM07", "OBJECT_ID": "2016-078G", "EPOCH": "2025-12-26T21:24:15.854688", "MEAN_MOTION": 15.506177, "ECCENTRICITY": 0.0009, "INCLINATION": 34.9473, "RA_OF_ASC_NODE": 288.6249, "ARG_OF_PERICENTER": 335.7371, "MEAN_ANOMALY": 24.2927, "EPHEMERIS_TYPE": 0, "CLASSIFICATION_TYPE": "U", "NORAD_CAT_ID": 41890, "ELEMENT_SET_NO": 999, "REV_AT_EPOCH": 50215, "BSTAR": 0.0004403566, "MEAN_MOTION_DOT": 0.00026102, "MEAN_MOTION_DDOT": 0}, "tle": {"line1": "1 41890U 16078G   25360.89185017  .00026102  00000+0  44036-3 0  9999", "line2": "2 41890  34.9473 288.6249 0009000 335.7371  24.2927 15.50617700502152"}}, "geometry": {"type": "Point", "coordinates": [178.39910596055086, -33.55481262441587]}}, {"type": "Feature", "properties": {"norad_id": 41891, "name": "CYGFM03", "group": "weather", "lat": 34.730260054514595, "lon": 11.699479250798573, "alt_km": 411.72988887360043, "timestamp": "2025-12-27T04:40:45.142722+00:00", "meta": {"OBJECT_NAME": "CYGFM03", "OBJECT_ID": "2016-078H", "EPOCH": "2025-12-26T22:08:11.250816", "MEAN_MOTION": 15.50511994, "ECCENTRICITY": 0.00088542, "INCLINATION": 34.9427, "RA_OF_ASC_NODE": 290.3522, "ARG_OF_PERICENTER": 322.2316, "MEAN_ANOMALY": 37.7784, "EPHEMERIS_TYPE": 0, "CLASSIFICATION_TYPE": "U", "NORAD_CAT_ID": 41891, "ELEMENT_SET_NO": 999, "REV_AT_EPOCH": 50213, "BSTAR": 0.00044359179, "MEAN_MOTION_DOT": 0.00026194, "MEAN_MOTION_DDOT": 0}, "tle": {"line1": "1 41891U 16078H   25360.92235244  .00026194  00000+0  44359-3 0  9991", "line2": "2 41891  34.9427 290.3522 0008854 322.2316  37.7784 15.50511994502138"}}, "geometry": {"type": "Point", "coordinates": [11.699479250798573, 34.730260054514595]}}]}